NORAD_CAT_ID,OBJECT_NAME,OBJECT_TYPE,EPOCH,MEAN_MOTION,ECCENTRICITY,INCLINATION,RA_OF_ASC_NODE,ARG_OF_PERICENTER,MEAN_ANOMALY,BSTAR,MEAN_MOTION_DOT,MEAN_MOTION_DDOT,TLE_LINE0,TLE_LINE1,TLE_LINE2,SEMIMAJOR_AXIS,PERIOD,APOGEE,PERIGEE,DECAYED
51774.0,STARLINK-3629,PAYLOAD,2022-12-02 21:01:55,15.08838198,0.0003255,53.2164,293.8643,34.2719,325.8482,-4.692300000000001e-05,-1.036e-05,0.0,0 STARLINK-3629,1 51774U 22017G   22336.87633947 -.00001036  00000-0 -46923-4 0  9999,2 51774  53.2164 293.8643 0003255  34.2719 325.8482 15.08838198 43991,6917.886,95.438,542.003,537.499,0.0
51774.0,STARLINK-3629,PAYLOAD,2022-12-03 08:09:37,15.0884519,0.0003294,53.218,291.7832,29.8636,330.2543,4.4587e-05,4.21e-06,0.0,0 STARLINK-3629,1 51774U 22017G   22337.34001932  .00000421  00000-0  44587-4 0  9994,2 51774  53.2180 291.7832 0003294  29.8636 330.2543 15.08845190 42567,6917.865,95.437,542.008,537.451,0.0
51774.0,STARLINK-3629,PAYLOAD,2022-12-03 14:31:10,15.08835841,0.0003238,53.2181,290.5936,33.199,326.9205,5.0085e-05,5.08e-06,0.0,0 STARLINK-3629,1 51774U 22017G   22337.60498580  .00000508  00000-0  50085-4 0  9998,2 51774  53.2181 290.5936 0003238  33.1990 326.9205 15.08835841 42603,6917.893,95.438,541.998,537.518,0.0
51774.0,STARLINK-3629,PAYLOAD,2022-12-04 03:14:15,15.08847853,0.0003211,53.218,288.2144,35.1094,325.0109,-1.3391e-05,-5.02e-06,0.0,0 STARLINK-3629,1 51774U 22017G   22338.13489929 -.00000502  00000-0 -13391-4 0  9999,2 51774  53.2180 288.2144 0003211  35.1094 325.0109 15.08847853 44189,6917.856,95.437,541.943,537.5,0.0
51774.0,STARLINK-3629,PAYLOAD,2022-12-04 08:00:24,15.08851024,0.0003245,53.218,287.3223,34.6581,325.4622,6.3375e-06,-1.88e-06,0.0,0 STARLINK-3629,1 51774U 22017G   22338.33361596 -.00000188  00000-0  63375-5 0  9997,2 51774  53.2180 287.3223 0003245  34.6581 325.4622 15.08851024 42715,6917.847,95.437,541.957,537.467,0.0
51774.0,STARLINK-3629,PAYLOAD,2022-12-04 14:21:57,15.08837183,0.0003423,53.2182,286.133,34.7228,325.3987,1.4888e-05,-5.2e-07,0.0,0 STARLINK-3629,1 51774U 22017G   22338.59858479 -.00000052  00000-0  14888-4 0  9990,2 51774  53.2182 286.1330 0003423  34.7228 325.3987 15.08837183 44254,6917.889,95.438,542.122,537.386,0.0
51774.0,STARLINK-3629,PAYLOAD,2022-12-05 06:15:49,15.08836467,0.0003181,53.2181,283.1595,30.4519,329.6658,5.4014e-05,5.71e-06,0.0,0 STARLINK-3629,1 51774U 22017G   22339.26098601  .00000571  00000-0  54014-4 0  9998,2 51774  53.2181 283.1595 0003181  30.4519 329.6658 15.08836467 42850,6917.891,95.438,541.957,537.556,0.0
51774.0,STARLINK-3629,PAYLOAD,2022-12-05 20:34:16,15.08845207,0.0003224,53.218,280.4838,30.7716,329.3464,0.00016632,2.36e-05,0.0,0 STARLINK-3629,1 51774U 22017G   22339.85713815  .00002360  00000-0  16632-3 0  9995,2 51774  53.2180 280.4838 0003224  30.7716 329.3464 15.08845207 44440,6917.864000000001,95.437,541.96,537.499,0.0
51774.0,STARLINK-3629,PAYLOAD,2022-12-06 06:06:35,15.08847397,0.0003229,53.2171,278.6988,31.4926,328.6259,0.00014158,1.966e-05,0.0,0 STARLINK-3629,1 51774U 22017G   22340.25457898  .00001966  00000-0  14158-3 0  9999,2 51774  53.2171 278.6988 0003229  31.4926 328.6259 15.08847397 43008,6917.858,95.437,541.957,537.489,0.0
51774.0,STARLINK-3629,PAYLOAD,2022-12-06 20:25:04,15.08826155,0.0003131,53.2189,276.0247,24.6234,335.4907,-8.455e-05,-1.634e-05,0.0,0 STARLINK-3629,1 51774U 22017G   22340.85075183 -.00001634  00000-0 -84550-4 0  9996,2 51774  53.2189 276.0247 0003131  24.6234 335.4907 15.08826155 43099,6917.9230000000025,95.438,541.9540000000002,537.622,0.0
51774.0,STARLINK-3629,PAYLOAD,2022-12-07 12:18:56,15.08828463,0.0003148,53.2179,273.0497,33.0026,327.1163,-6.573e-05,-1.334e-05,0.0,0 STARLINK-3629,1 51774U 22017G   22341.51315371 -.00001334  00000-0 -65730-4 0  9992,2 51774  53.2179 273.0497 0003148  33.0026 327.1163 15.08828463 43190,6917.916,95.438,541.9580000000002,537.6030000000002,0.0
51774.0,STARLINK-3629,PAYLOAD,2022-12-08 04:12:48,15.08835377,0.0003299,53.2177,270.0751,33.6255,326.4946,0.00017062,2.428e-05,0.0,0 STARLINK-3629,1 51774U 22017G   22342.17555589  .00002428  00000-0  17062-3 0  9999,2 51774  53.2177 270.0751 0003299  33.6255 326.4946 15.08835377 44795,6917.895,95.438,542.0419999999998,537.477,0.0
51774.0,STARLINK-3629,PAYLOAD,2022-12-08 12:09:43,15.08850875,0.0003133,53.2176,268.5889,34.6982,325.4215,0.00049173,7.549e-05,0.0,0 STARLINK-3629,1 51774U 22017G   22342.50675109  .00007549  00000-0  49173-3 0  9994,2 51774  53.2176 268.5889 0003133  34.6982 325.4215 15.08850875 43341,6917.847,95.437,541.88,537.545,0.0
51774.0,STARLINK-3629,PAYLOAD,2022-12-09 00:52:47,15.08870959,0.0003051,53.2174,266.2098,32.6873,327.4308,0.00080936,0.00012628,0.0,0 STARLINK-3629,1 51774U 22017G   22343.03666207  .00012628  00000-0  80936-3 0  9998,2 51774  53.2174 266.2098 0003051  32.6873 327.4308 15.08870959 44927,6917.786,95.436,541.761,537.54,0.0
51774.0,STARLINK-3629,PAYLOAD,2022-12-09 04:03:33,15.08866506,0.0002788999999999,53.2162,265.6149,26.8498,333.2638,0.00070882,0.00011019,0.0,0 STARLINK-3629,1 51774U 22017G   22343.16913966  .00011019  00000-0  70882-3 0  9991,2 51774  53.2162 265.6149 0002789  26.8498 333.2638 15.08866506 43449,6917.799,95.436,541.594,537.735,0.0
51774.0,STARLINK-3629,PAYLOAD,2022-12-10 03:54:22,15.08816657,0.0002304,53.2163,261.1525,24.5728,335.5374,-0.00038863,-6.464e-05,0.0,0 STARLINK-3629,1 51774U 22017G   22344.16275658 -.00006464  00000-0 -38863-3 0  9994,2 51774  53.2163 261.1525 0002304  24.5728 335.5374 15.08816657 45090,6917.9519999999975,95.439,541.411,538.2230000000002,0.0
51774.0,STARLINK-3629,PAYLOAD,2022-12-11 03:45:09,15.08837618,0.0003161,53.2165,256.6957,28.5623,331.5542,0.0001839,2.639e-05,0.0,0 STARLINK-3629,1 51774U 22017G   22345.15635726  .00002639  00000-0  18390-3 0  9991,2 51774  53.2165 256.6957 0003161  28.5623 331.5542 15.08837618 45240,6917.888000000001,95.438,541.939,537.566,0.0
51774.0,STARLINK-3629,PAYLOAD,2022-12-11 19:39:00,15.08845622,0.0003361,53.2157,253.7225,20.5829,339.5298,0.00031476,4.725e-05,0.0,0 STARLINK-3629,1 51774U 22017G   22345.81875829  .00004725  00000-0  31476-3 0  9992,2 51774  53.2157 253.7225 0003361  20.5829 339.5298 15.08845622 43843,6917.863,95.437,542.053,537.403,0.0
51774.0,STARLINK-3629,PAYLOAD,2022-12-12 02:00:33,15.08841855,0.0002924,53.2161,252.5326,25.5469,334.5667,0.00044385,6.783e-05,0.0,0 STARLINK-3629,1 51774U 22017G   22346.08371876  .00006783  00000-0  44385-3 0  9994,2 51774  53.2161 252.5326 0002924  25.5469 334.5667 15.08841855 43889,6917.875,95.437,541.763,537.717,0.0
51774.0,STARLINK-3629,PAYLOAD,2022-12-12 17:54:23,15.08850565,0.0002887,53.2161,249.5584,26.6877,333.4263,0.00017486,2.496e-05,0.0,0 STARLINK-3629,1 51774U 22017G   22346.74611087  .00002496  00000-0  17486-3 0  9997,2 51774  53.2161 249.5584 0002887  26.6877 333.4263 15.08850565 45480,6917.848000000001,95.437,541.71,537.716,0.0
51774.0,STARLINK-3629,PAYLOAD,2022-12-12 19:29:47,15.08832408,0.0002729,53.216,249.2604,27.7343,332.3794,0.00050868,7.815e-05,0.0,0 STARLINK-3629,1 51774U 22017G   22346.81235764  .00007815  00000-0  50868-3 0  9990,2 51774  53.2160 249.2604 0002729  27.7343 332.3794 15.08832408 43991,6917.904,95.438,541.656,537.881,0.0
51774.0,STARLINK-3629,PAYLOAD,2022-12-13 03:26:42,15.08848347,0.000296,53.2159,247.7737,25.1706,334.9430000000001,-2.0173e-05,-6.1e-06,0.0,0 STARLINK-3629,1 51774U 22017G   22347.14355026 -.00000610  00000-0 -20173-4 0  9996,2 51774  53.2159 247.7737 0002960  25.1706 334.9430 15.08848347 44042,6917.855,95.437,541.768,537.672,0.0
51774.0,STARLINK-3629,PAYLOAD,2022-12-13 16:09:47,15.08847841,0.000299,53.2156,245.3948,25.181,334.9327,6.5911e-05,7.61e-06,0.0,0 STARLINK-3629,1 51774U 22017G   22347.67346785  .00000761  00000-0  65911-4 0  9990,2 51774  53.2156 245.3948 0002990  25.1810 334.9327 15.08847841 45624,6917.856,95.437,541.79,537.653,0.0
51774.0,STARLINK-3629,PAYLOAD,2022-12-14 01:42:06,15.08840832,0.0002983,53.2171,243.6105,26.5492,333.5652,8.3629e-06,-1.56e-06,0.0,0 STARLINK-3629,1 51774U 22017G   22348.07091303 -.00000156  00000-0  83629-5 0  9994,2 51774  53.2171 243.6105 0002983  26.5492 333.5652 15.08840832 45685,6917.878000000002,95.438,541.806,537.679,0.0
51774.0,STARLINK-3629,PAYLOAD,2022-12-14 16:00:35,15.08835663,0.0002781,53.2171,240.9348,23.5852,336.5267,6.023e-05,6.7e-06,0.0,0 STARLINK-3629,1 51774U 22017G   22348.66707315  .00000670  00000-0  60230-4 0  9998,2 51774  53.2171 240.9348 0002781  23.5852 336.5267 15.08835663 44272,6917.894,95.438,541.683,537.835,0.0
51774.0,STARLINK-3629,PAYLOAD,2022-12-14 20:46:45,15.08829584,0.0002618,53.2176,240.0432,17.3934,342.7148,1.1903e-05,-9.9e-07,0.0,0 STARLINK-3629,1 51774U 22017G   22348.86579922 -.00000099  00000-0  11903-4 0  9990,2 51774  53.2176 240.0432 0002618  17.3934 342.7148 15.08829584 45805,6917.9119999999975,95.438,541.5880000000002,537.966,0.0
51774.0,STARLINK-3629,PAYLOAD,2022-12-15 09:29:50,15.08833712,0.0002843,53.2173,237.6636,23.7187,336.3935,1.2882e-05,-8.4e-07,0.0,0 STARLINK-3629,1 51774U 22017G   22349.39572120 -.00000084  00000-0  12882-4 0  9993,2 51774  53.2173 237.6636 0002843  23.7187 336.3935 15.08833712 44384,6917.9,95.438,541.731,537.798,0.0
51774.0,STARLINK-3629,PAYLOAD,2022-12-15 20:37:31,15.08840123,0.0002841,53.2161,235.5824,22.6876,337.4242,0.00018779,2.702e-05,0.0,0 STARLINK-3629,1 51774U 22017G   22349.85939615  .00002702  00000-0  18779-3 0  9998,2 51774  53.2161 235.5824 0002841  22.6876 337.4242 15.08840123 44453,6917.88,95.438,541.71,537.78,0.0
51774.0,STARLINK-3629,PAYLOAD,2022-12-16 01:23:41,15.08836986,0.0002779,53.2151,234.6898,22.8032,337.3083,0.00016069,2.27e-05,0.0,0 STARLINK-3629,1 51774U 22017G   22350.05811899  .00002270  00000-0  16069-3 0  9995,2 51774  53.2151 234.6898 0002779  22.8032 337.3083 15.08836986 45982,6917.89,95.438,541.677,537.832,0.0
